STARLINK-5261
1 55276U 23010H   26092.77185667 -.00031032  00000+0 -26215-2 0  9995
2 55276  69.9983 323.8525 0003913 300.2131  59.8640 14.98075097176876
